BREEZE-M R/B            
1 43868U 18107B   26095.44112884 -.00000142  00000+0  00000+0 0  9996
2 43868   7.2275  74.6074 0723061 310.6031  43.3421  0.90469616 24054
TJS-3                   
1 43874U 18110A   26095.74878947 -.00000332  00000+0  00000+0 0  9990
2 43874   2.3584  81.3488 0000510 354.0020 124.3591  1.00774102 26692
ZHONGXING-2D            
1 43920U 19001A   26095.84204051 -.00000335  00000+0  00000+0 0  9995
2 43920   0.0577  41.5166 0000592 280.9695 304.7944  1.00273551 53358
ATLAS 5 CENTAUR DEB     
1 43959U 14055N   26095.38093815 -.00000063  00000+0  00000+0 0  9992
2 43959  19.9370 144.1913 5049055 161.2247 227.5741  1.81433635 50349
ATLAS 5 CENTAUR DEB     
1 43960U 14055P   26095.55157728 -.00000064  00000+0  00000+0 0  9998
2 43960  20.0045 144.7106 5065550 160.9670 228.3295  1.81614600 50321
ATLAS 5 CENTAUR DEB     
1 43967U 14055W   26095.67437337 -.00000072  00000+0  00000+0 0  9994
2 43967  20.1442 141.0717 5035342 167.9462 211.1026  1.82854167 50675
ATLAS 5 CENTAUR DEB     
1 43968U 14055X   26095.33106674 -.00000075  00000+0  00000+0 0  9998
2 43968  20.1878 138.6961 5042025 172.0963 200.6039  1.83128837 50745
ATLAS 5 CENTAUR DEB     
1 43981U 14055AL  26095.06352624 -.00000033  00000+0  00000+0 0  9995
2 43981  19.8593 145.3551 5136383 155.5307 241.5224  1.78785617 49475
ATLAS 5 CENTAUR DEB     
1 43982U 14055AM  26092.37187737 -.00000029  00000+0  00000+0 0  9993
2 43982  19.1185 198.7998 4710923  70.1363 333.5322  1.75462560 48481
ATLAS 5 CENTAUR DEB     
1 43987U 14055AS  26095.07951461 -.00000048  00000+0  00000+0 0  9992
2 43987  19.9775 152.1065 4938667 148.2339 254.4310  1.84000799 51052
ATLAS 5 CENTAUR DEB     
1 43996U 14055BB  26095.83203485 -.00000036  00000+0  00000+0 0  9999
2 43996  19.5809 163.9607 4859772 129.4965 284.6157  1.81739936 49716
ATLAS 5 CENTAUR DEB     
1 44007U 14055BN  26085.21813098 -.00000005  00000+0  00000+0 0  9997
2 44007  19.0754 185.5778 4907759  91.8419 322.5734  1.76252989 48172
HELLAS-SAT 4 & SGS-1    
1 44034U 19007A   26095.82399562  .00000154  00000+0  00000+0 0  9996
2 44034   0.0688 125.2446 0003475   9.6597  34.8770  1.00271954 26644
GSAT-31                 
1 44035U 19007B   26095.82572897  .00000127  00000+0  00000+0 0  9991
2 44035   0.0156 252.7910 0003751  77.8176 208.6357  1.00272584 26242
NUSANTARA SATU          
1 44048U 19009A   26095.84524718 -.00000232  00000+0  00000+0 0  9996
2 44048   0.0295 145.0371 0002694 304.7800 194.6211  1.00272312 26046
ZHONGXING-6C            
1 44067U 19012A   26095.84212718 -.00000333  00000+0  00000+0 0  9997
2 44067   0.0597  48.2482 0011008 348.2557 231.2118  1.00273303 26012
WGS 10 (USA 291)        
1 44071U 19014A   26092.11622337  .00000000  00000+0  00000+0 0  9993
2 44071   0.0193 184.3175 0000553 194.2754 274.0080  1.00270221 25851
