[{"OBJECT_NAME":"BREEZE-M R/B","OBJECT_ID":"2018-107B","EPOCH":"2026-04-05T10:35:13.531776","MEAN_MOTION":0.90469616,"ECCENTRICITY":0.0723061,"INCLINATION":7.2275,"RA_OF_ASC_NODE":74.6074,"ARG_OF_PERICENTER":310.6031,"MEAN_ANOMALY":43.3421,"EPHEMERIS_TYPE":0,"CLASSIFICATION_TYPE":"U","NORAD_CAT_ID":43868,"ELEMENT_SET_NO":999,"REV_AT_EPOCH":2405,"BSTAR":0,"MEAN_MOTION_DOT":-1.42e-6,"MEAN_MOTION_DDOT":0},{"OBJECT_NAME":"TJS-3","OBJECT_ID":"2018-110A","EPOCH":"2026-04-05T17:58:15.410208","MEAN_MOTION":1.00774102,"ECCENTRICITY":5.1e-5,"INCLINATION":2.3584,"RA_OF_ASC_NODE":81.3488,"ARG_OF_PERICENTER":354.002,"MEAN_ANOMALY":124.3591,"EPHEMERIS_TYPE":0,"CLASSIFICATION_TYPE":"U","NORAD_CAT_ID":43874,"ELEMENT_SET_NO":999,"REV_AT_EPOCH":2669,"BSTAR":0,"MEAN_MOTION_DOT":-3.32e-6,"MEAN_MOTION_DDOT":0},{"OBJECT_NAME":"ZHONGXING-2D","OBJECT_ID":"2019-001A","EPOCH":"2026-04-05T20:12:32.300064","MEAN_MOTION":1.00273551,"ECCENTRICITY":5.92e-5,"INCLINATION":0.0577,"RA_OF_ASC_NODE":41.5166,"ARG_OF_PERICENTER":280.9695,"MEAN_ANOMALY":304.7944,"EPHEMERIS_TYPE":0,"CLASSIFICATION_TYPE":"U","NORAD_CAT_ID":43920,"ELEMENT_SET_NO":999,"REV_AT_EPOCH":5335,"BSTAR":0,"MEAN_MOTION_DOT":-3.35e-6,"MEAN_MOTION_DDOT":0},{"OBJECT_NAME":"ATLAS 5 CENTAUR DEB","OBJECT_ID":"2014-055N","EPOCH":"2026-04-05T09:08:33.056160","MEAN_MOTION":1.81433635,"ECCENTRICITY":0.50490554,"INCLINATION":19.937,"RA_OF_ASC_NODE":144.1913,"ARG_OF_PERICENTER":161.2247,"MEAN_ANOMALY":227.5741,"EPHEMERIS_TYPE":0,"CLASSIFICATION_TYPE":"U","NORAD_CAT_ID":43959,"ELEMENT_SET_NO":999,"REV_AT_EPOCH":5034,"BSTAR":0,"MEAN_MOTION_DOT":-6.3e-7,"MEAN_MOTION_DDOT":0},{"OBJECT_NAME":"ATLAS 5 CENTAUR DEB","OBJECT_ID":"2014-055P","EPOCH":"2026-04-05T13:14:16.276992","MEAN_MOTION":1.816146,"ECCENTRICITY":0.506555,"INCLINATION":20.0045,"RA_OF_ASC_NODE":144.7106,"ARG_OF_PERICENTER":160.967,"MEAN_ANOMALY":228.3295,"EPHEMERIS_TYPE":0,"CLASSIFICATION_TYPE":"U","NORAD_CAT_ID":43960,"ELEMENT_SET_NO":999,"REV_AT_EPOCH":5032,"BSTAR":0,"MEAN_MOTION_DOT":-6.4e-7,"MEAN_MOTION_DDOT":0},{"OBJECT_NAME":"ATLAS 5 CENTAUR DEB","OBJECT_ID":"2014-055W","EPOCH":"2026-04-05T16:11:05.859168","MEAN_MOTION":1.82854167,"ECCENTRICITY":0.5035342,"INCLINATION":20.1442,"RA_OF_ASC_NODE":141.0717,"ARG_OF_PERICENTER":167.9462,"MEAN_ANOMALY":211.1026,"EPHEMERIS_TYPE":0,"CLASSIFICATION_TYPE":"U","NORAD_CAT_ID":43967,"ELEMENT_SET_NO":999,"REV_AT_EPOCH":5067,"BSTAR":0,"MEAN_MOTION_DOT":-7.2e-7,"MEAN_MOTION_DDOT":0},{"OBJECT_NAME":"ATLAS 5 CENTAUR DEB","OBJECT_ID":"2014-055X","EPOCH":"2026-04-05T07:56:44.166336","MEAN_MOTION":1.83128837,"ECCENTRICITY":0.5042025,"INCLINATION":20.1878,"RA_OF_ASC_NODE":138.6961,"ARG_OF_PERICENTER":172.0963,"MEAN_ANOMALY":200.6039,"EPHEMERIS_TYPE":0,"CLASSIFICATION_TYPE":"U","NORAD_CAT_ID":43968,"ELEMENT_SET_NO":999,"REV_AT_EPOCH":5074,"BSTAR":0,"MEAN_MOTION_DOT":-7.5e-7,"MEAN_MOTION_DDOT":0},{"OBJECT_NAME":"ATLAS 5 CENTAUR DEB","OBJECT_ID":"2014-055AL","EPOCH":"2026-04-05T01:31:28.667136","MEAN_MOTION":1.78785617,"ECCENTRICITY":0.5136383,"INCLINATION":19.8593,"RA_OF_ASC_NODE":145.3551,"ARG_OF_PERICENTER":155.5307,"MEAN_ANOMALY":241.5224,"EPHEMERIS_TYPE":0,"CLASSIFICATION_TYPE":"U","NORAD_CAT_ID":43981,"ELEMENT_SET_NO":999,"REV_AT_EPOCH":4947,"BSTAR":0,"MEAN_MOTION_DOT":-3.3e-7,"MEAN_MOTION_DDOT":0},{"OBJECT_NAME":"ATLAS 5 CENTAUR DEB","OBJECT_ID":"2014-055AM","EPOCH":"2026-04-02T08:55:30.204768","MEAN_MOTION":1.7546256,"ECCENTRICITY":0.47109238,"INCLINATION":19.1185,"RA_OF_ASC_NODE":198.7998,"ARG_OF_PERICENTER":70.1363,"MEAN_ANOMALY":333.5322,"EPHEMERIS_TYPE":0,"CLASSIFICATION_TYPE":"U","NORAD_CAT_ID":43982,"ELEMENT_SET_NO":999,"REV_AT_EPOCH":4848,"BSTAR":0,"MEAN_MOTION_DOT":-2.9e-7,"MEAN_MOTION_DDOT":0},{"OBJECT_NAME":"ATLAS 5 CENTAUR DEB","OBJECT_ID":"2014-055AS","EPOCH":"2026-04-05T01:54:30.062304","MEAN_MOTION":1.84000799,"ECCENTRICITY":0.4938667,"INCLINATION":19.9775,"RA_OF_ASC_NODE":152.1065,"ARG_OF_PERICENTER":148.2339,"MEAN_ANOMALY":254.431,"EPHEMERIS_TYPE":0,"CLASSIFICATION_TYPE":"U","NORAD_CAT_ID":43987,"ELEMENT_SET_NO":999,"REV_AT_EPOCH":5105,"BSTAR":0,"MEAN_MOTION_DOT":-4.8e-7,"MEAN_MOTION_DDOT":0},{"OBJECT_NAME":"ATLAS 5 CENTAUR DEB","OBJECT_ID":"2014-055BB","EPOCH":"2026-04-05T19:58:07.811040","MEAN_MOTION":1.81739936,"ECCENTRICITY":0.4859772,"INCLINATION":19.5809,"RA_OF_ASC_NODE":163.9607,"ARG_OF_PERICENTER":129.4965,"MEAN_ANOMALY":284.6157,"EPHEMERIS_TYPE":0,"CLASSIFICATION_TYPE":"U","NORAD_CAT_ID":43996,"ELEMENT_SET_NO":999,"REV_AT_EPOCH":4971,"BSTAR":0,"MEAN_MOTION_DOT":-3.6e-7,"MEAN_MOTION_DDOT":0},{"OBJECT_NAME":"ATLAS 5 CENTAUR DEB","OBJECT_ID":"2014-055BN","EPOCH":"2026-03-26T05:14:06.516672","MEAN_MOTION":1.76252989,"ECCENTRICITY":0.4907759,"INCLINATION":19.0754,"RA_OF_ASC_NODE":185.5778,"ARG_OF_PERICENTER":91.8419,"MEAN_ANOMALY":322.5734,"EPHEMERIS_TYPE":0,"CLASSIFICATION_TYPE":"U","NORAD_CAT_ID":44007,"ELEMENT_SET_NO":999,"REV_AT_EPOCH":4817,"BSTAR":0,"MEAN_MOTION_DOT":-5.0e-8,"MEAN_MOTION_DDOT":0},{"OBJECT_NAME":"HELLAS-SAT 4 & SGS-1","OBJECT_ID":"2019-007A","EPOCH":"2026-04-05T19:46:33.221568","MEAN_MOTION":1.00271954,"ECCENTRICITY":0.0003475,"INCLINATION":0.0688,"RA_OF_ASC_NODE":125.2446,"ARG_OF_PERICENTER":9.6597,"MEAN_ANOMALY":34.877,"EPHEMERIS_TYPE":0,"CLASSIFICATION_TYPE":"U","NORAD_CAT_ID":44034,"ELEMENT_SET_NO":999,"REV_AT_EPOCH":2664,"BSTAR":0,"MEAN_MOTION_DOT":1.54e-6,"MEAN_MOTION_DDOT":0},{"OBJECT_NAME":"GSAT-31","OBJECT_ID":"2019-007B","EPOCH":"2026-04-05T19:49:02.983008","MEAN_MOTION":1.00272584,"ECCENTRICITY":0.0003751,"INCLINATION":0.0156,"RA_OF_ASC_NODE":252.791,"ARG_OF_PERICENTER":77.8176,"MEAN_ANOMALY":208.6357,"EPHEMERIS_TYPE":0,"CLASSIFICATION_TYPE":"U","NORAD_CAT_ID":44035,"ELEMENT_SET_NO":999,"REV_AT_EPOCH":2624,"BSTAR":0,"MEAN_MOTION_DOT":1.27e-6,"MEAN_MOTION_DDOT":0},{"OBJECT_NAME":"NUSANTARA SATU","OBJECT_ID":"2019-009A","EPOCH":"2026-04-05T20:17:09.356352","MEAN_MOTION":1.00272312,"ECCENTRICITY":0.0002694,"INCLINATION":0.0295,"RA_OF_ASC_NODE":145.0371,"ARG_OF_PERICENTER":304.78,"MEAN_ANOMALY":194.6211,"EPHEMERIS_TYPE":0,"CLASSIFICATION_TYPE":"U","NORAD_CAT_ID":44048,"ELEMENT_SET_NO":999,"REV_AT_EPOCH":2604,"BSTAR":0,"MEAN_MOTION_DOT":-2.32e-6,"MEAN_MOTION_DDOT":0},{"OBJECT_NAME":"ZHONGXING-6C","OBJECT_ID":"2019-012A","EPOCH":"2026-04-05T20:12:39.788352","MEAN_MOTION":1.00273303,"ECCENTRICITY":0.0011008,"INCLINATION":0.0597,"RA_OF_ASC_NODE":48.2482,"ARG_OF_PERICENTER":348.2557,"MEAN_ANOMALY":231.2118,"EPHEMERIS_TYPE":0,"CLASSIFICATION_TYPE":"U","NORAD_CAT_ID":44067,"ELEMENT_SET_NO":999,"REV_AT_EPOCH":2601,"BSTAR":0,"MEAN_MOTION_DOT":-3.33e-6,"MEAN_MOTION_DDOT":0},{"OBJECT_NAME":"WGS 10 (USA 291)","OBJECT_ID":"2019-014A","EPOCH":"2026-04-02T02:47:21.699168","MEAN_MOTION":1.00270221,"ECCENTRICITY":5.537e-5,"INCLINATION":0.0193,"RA_OF_ASC_NODE":184.3175,"ARG_OF_PERICENTER":194.2754,"MEAN_ANOMALY":274.008,"EPHEMERIS_TYPE":0,"CLASSIFICATION_TYPE":"U","NORAD_CAT_ID":44071,"ELEMENT_SET_NO":999,"REV_AT_EPOCH":2585,"BSTAR":0,"MEAN_MOTION_DOT":0,"MEAN_MOTION_DDOT":0}]
